COSMOS 2433 (720)       
1 32275U 07052A   22267.74759832 -.00000065  00000+0  00000+0 0  9997
2 32275  66.0780   1.3774 0003670 216.5811 259.4189  2.13104303116081
COSMOS 2432 (719)       
1 32276U 07052B   22267.60015784 -.00000066  00000+0  00000+0 0  9995
2 32276  66.0916   1.4849 0007848 324.4355 346.4933  2.13103321116072
COSMOS 2434 (721)       
1 32393U 07065A   22267.51051365  .00000030  00000+0  00000+0 0  9994
2 32393  64.3721 238.0445 0000387 135.3988  48.6226  2.13103109114785
COSMOS 2436 (723)       
1 32395U 07065C   22267.11501287  .00000030  00000+0  00000+0 0  9995
2 32395  64.3813 238.1159 0015254 351.7334  24.6828  2.13102888114718
COSMOS 2456 (730)       
1 36111U 09070A   22266.34576030  .00000070  00000+0  00000+0 0  9999
2 36111  64.3762 117.6923 0002364 333.5277 201.1557  2.13099282 99427
COSMOS 2457 (733)       
1 36112U 09070B   22267.60118981  .00000076  00000+0  00000+0 0  9993
2 36112  64.3596 117.5229 0005822 151.1901  34.6779  2.13101496 99450
COSMOS 2461 (735)       
1 36401U 10007B   22267.83579185 -.00000065  00000+0  00000+0 0  9997
2 36401  65.9614   0.1989 0018388   8.8197  32.1230  2.13103658 97810
COSMOS 2460 (732)       
1 36402U 10007C   22267.79686054 -.00000065  00000+0  00000+0 0  9997
2 36402  65.9479   0.1488 0001843 162.3182 158.1489  2.13106441 97809
COSMOS 2464 (736)       
1 37139U 10041C   22267.69553925  .00000029  00000+0  00000+0 0  9991
2 37139  63.9711 237.0639 0028479   5.9192 177.5470  2.13100809 93869
COSMOS 2476 (744)       
1 37867U 11064A   22267.64159390  .00000076  00000+0  00000+0 0  9990
2 37867  64.6631 119.0425 0020594 232.8777 122.2484  2.13101820 84796
COSMOS 2477 (745)       
1 37868U 11064B   22267.69873487  .00000077  00000+0  00000+0 0  9997
2 37868  64.6707 119.1063 0017892 233.5004 343.5363  2.13101749 84758
COSMOS 2475 (743)       
1 37869U 11064C   22267.69377466  .00000077  00000+0  00000+0 0  9994
2 37869  64.6789 119.1157 0021769 252.8313 278.5347  2.13102080 84767
COSMOS 2485 (747)       
1 39155U 13019A   22267.34494387  .00000076  00000+0  00000+0 0  9999
2 39155  64.8264 119.5022 0021090 228.7093 303.2449  2.13101993 73260
COSMOS 2492 (754)       
1 39620U 14012A   22267.59318100 -.00000066  00000+0  00000+0 0  9995
2 39620  65.8335 359.8227 0011203 318.6599  78.1059  2.13103214 66229
COSMOS 2500 (755)       
1 40001U 14032A   22267.69459419 -.00000065  00000+0  00000+0 0  9991
2 40001  65.7734 359.6728 0007864 192.2416 140.7107  2.13102324 64434
COSMOS 2501 (702K)      
1 40315U 14075A   22267.69893749  .00000029  00000+0  00000+0 0  9993
2 40315  63.6784 237.6945 0019358 212.3341 292.4381  2.13101379 60841
COSMOS 2514 (751)       
1 41330U 16008A   22267.48996272 -.00000066  00000+0  00000+0 0  9993
2 41330  65.5715 359.3479 0011739 208.1868 151.7892  2.13102729 51608
COSMOS 2516 (753)       
1 41554U 16032A   22267.79282071  .00000030  00000+0  00000+0 0  9997
2 41554  63.9040 237.9955 0014971 216.4162 280.6718  2.13106387 49216
COSMOS 2522 (752)       
1 42939U 17055A   22266.03195343  .00000032  00000+0  00000+0 0  9994
2 42939  64.1387 238.4805 0009837 245.3298 196.0242  2.13102033 38930
COSMOS 2527 (756)       
1 43508U 18053A   22267.70567047  .00000077  00000+0  00000+0 0  9994
2 43508  64.9889 119.5111 0007210 220.2129  97.2330  2.13102519 33254
COSMOS 2529 (757)       
1 43687U 18086A   22267.62900537  .00000031  00000+0  00000+0 0  9994
2 43687  64.3530 238.7683 0011766 264.3062 277.7790  2.13102110 30274
COSMOS 2534 (758)       
1 44299U 19030A   22267.88238728  .00000032  00000+0  00000+0 0  9999
2 44299  64.4251 238.6537 0014121 282.5556 228.4082  2.13101868 25922
COSMOS 2544 (759)       
1 44850U 19088A   22267.70722411  .00000078  00000+0  16595+1 0  9990
2 44850  64.9733 119.3616 0010933 254.8802 107.1443  2.13102314 21692
COSMOS 2545 (760)       
1 45358U 20018A   22267.94103917 -.00000065  00000+0  00000+0 0  9999
2 45358  64.9105 359.8590 0009437 236.1028 154.6492  2.13102675 19655
COSMOS 2547 (705K)      
1 46805U 20075A   22267.80541252  .00000031  00000+0  00000+0 0  9995
2 46805  64.6500 238.1102 0008581 246.7699 253.1749  2.13102978 14894
COSMOS 2557 (706K)      
1 52984U 22075A   22267.91123856 -.00000067  00000+0  10000-3 0  9995
2 52984  64.8147   2.0580 0011512 276.4803 182.4737  2.13101929  1691
